,name,address,lat,lng
0,汉庭酒店(中山公园二店),上海市愚园路1333号,31.225037,121.43041
1,龙微精品酒店(上海中山公园地铁站店),长宁区华阳路200号(中山公园地铁站旁),31.229,121.429242
2,如家酒店(定西路店),上海市长宁区定西路1118号,31.218509,121.429808
3,恒佳宾馆(江苏路地铁站店),长宁路320号(长宁路江苏路路口),31.230499,121.433866
4,上海龙之梦万丽酒店,上海市长宁路1018号,31.224993,121.423659
5,海友酒店(上海中山公园武夷路店),上海市长宁区武夷路491弄9号,31.219297,121.426762
6,海友酒店(长宁路店),上海市静安区长宁路125号君子兰商务楼3层,31.233156,121.434467
7,海友酒店(江苏路店),上海市长宁区延安西路688弄2号,31.222315,121.440735
8,如家酒店(长宁店),上海市长宁区武夷路11号,31.219844,121.437311
9,和颐至尊酒店(中山公园店),上海市长宁区延安西路1119号,31.218349,121.436285
10,摩登青年旅舍,上海市长宁区安化路300弄3号江苏路中山公园摩登青年旅舍,31.221251,121.432373
11,布丁酒店(金沙江地铁站店),上海市普陀区凯旋北路1555弄2号,31.234937,121.419061
12,漫颐酒店,上海市静安区长宁路89号,31.234039,121.434356
13,布丁酒店(中山公园店),上海市长宁区万航渡路2579号,31.224321,121.412466
14,汉庭酒店(华师大宁夏路店),上海市普陀区宁夏路268号,31.240668,121.425487
15,登巴国际连锁客栈(上海店),上海市长宁区延安西路576号,31.222958,121.441784
16,上海LoisYe公寓(NO.8店),西园公寓,31.225806,121.429286
17,上海默默的温馨小窝公寓(NO.2店),亨昌里(南门),31.225325,121.42963
18,海友酒店(上海环球港店),上海市普陀区中山北路3612号,31.23535,121.417147
19,7天酒店(延安西路地铁站店),上海市长宁区杨宅路20号,31.212857,121.426475
20,格林豪泰酒店(上海静安寺店),上海市静安区新闸路1829号,31.233897,121.449493
21,YUNIK酒店(上海中山公园延安西路店),"上海市长宁区延安西路1119号(靠近江苏路,番禺路龙之梦大酒店对面)",31.217717,121.435906
22,上海龙之梦大酒店,上海市长宁区延安西路1116号,31.21719,121.436705
23,7天酒店(上海华师大金沙江路地铁站店),上海市普陀区中山北路3636号,31.234937,121.417061
24,城宿团团公寓(上海钱学森旧居店),上海市长宁区愚园路与安西路交叉路口南侧(桃源坊),31.225387,121.431297
25,上海中山青年公寓,上海市长宁区宣化路311号富都商务楼,31.22283,121.431009
26,永动机酒店,上海市静安区万航渡路789号,31.234195,121.437353
27,海友酒店(静安寺新店),上海市静安区昌平路1009号,31.238059,121.442385
28,海友酒店(静安寺店),上海市静安区万航渡路105号,31.231659,121.44892
29,美宇宾馆(延安店),上海市长宁区延安西路949弄5号,31.220401,121.437789
30,静安昆仑大酒店,上海市静安区华山路250号,31.225693,121.45183
31,美丽园大酒店(延安西路分店),上海市静安区延安西路396号,31.224751,121.444338
32,上海日航饭店,上海市长宁区延安西路488号,31.224083,121.443541
33,如家商旅酒店(曹杨路地铁站店),上海市普陀区曹杨路333号,31.240576,121.427318
34,Zsmart智尚酒店(曹杨路地铁站店),上海市普陀区曹杨路362弄15号金阳大厦4层,31.241585,121.427568
35,上海SHIRLY私家洋房公寓长宁路分店,长宁路712弄,31.226568,121.428904
36,海友酒店(上海曹杨路地铁站店),上海市普陀区曹杨路595号,31.243728,121.424121
37,嫚艾酒店(长寿路店),上海市静安区长寿路1077号3楼,31.236453,121.434504
38,上海古井假日酒店,上海市普陀区长寿路700号,31.244339,121.439829
39,上海国际贵都大饭店,上海市静安区延安西路65号,31.226394,121.45091
40,盈超酒店公寓(上海华师大金沙江地铁站店),上海市普陀区凯旋北路1555弄2号楼2层,31.234949,121.419078
41,多来米酒店(华师大店),上海市普陀区梅岭支路5号,31.240118,121.417737
42,上海纳兰时尚宾馆(中山公园店),"上海市长宁区长宁路1557号(虹桥国际大厦4楼,近遵义路)",31.222898,121.414389
43,如家·neo(陕西北路店),上海市普陀区陕西北路1738号,31.252967,121.443934
44,上海虹桥郁锦香宾馆,上海市长宁区延安西路2000号,31.210028,121.416859
45,上海Smart青年旅舍长寿路店,上海市普陀区长寿路988号604室,31.239904,121.435434
46,上海宾馆,上海市静安区乌鲁木齐北路505号,31.22446,121.450574
47,上海扬子江万丽大酒店,上海市延安西路2099号,31.208909,121.412523
48,曼福楼连锁宾馆(上海静安寺店),上海市静安区乌鲁木齐北路65弄1号(近万航渡路),31.230788,121.447211
49,上海新发展亚太JW万豪酒店,上海市大渡河路158号,31.227279,121.402281
50,上海宏安瑞士大酒店,上海市愚园路1号,31.231211,121.453365
51,派柏·云酒店(上海长宁中山公园地铁站长宁店),上海市长宁区长宁路1513号(长宁路遵义路路口),31.222864,121.414935
52,上海M家社区酒店(武宁路地铁站店),上海市普陀区长寿路988号艾森精品酒店6楼,31.239853,121.435626
53,上海安曼纳卓悦酒店,上海市普陀区长寿路600号,31.244922,121.441557
54,茶悦宾馆(华山路店),上海市静安区华山路789号,31.221676,121.446202
55,上海静安香格里拉大酒店,上海市静安区延安中路1218号,31.229538,121.456839
56,锦江之星(徐家汇交大店),上海市徐汇区广元西路319号,31.201094,121.438637
57,上海登巴国际连锁客栈(长寿路店),上海市普陀区西康路1426号,31.250749,121.442233
58,Zsmart智尚酒店(虹桥路店),上海市徐汇区虹桥路409号,31.200162,121.435832
59,上海浦江精选酒店,上海市长宁区华山路1617-～1619附近,31.209705,121.441116
60,海友酒店(徐汇交大店),上海市长宁区安顺路8号,31.205545,121.432831
61,易佰连锁旅店(静安寺店),上海市静安区安远路601号,31.242647,121.443958
62,莫泰酒店(枫桥路地铁站店),上海市普陀区枫桥路69号,31.247638,121.41555
63,虹桥锦江大酒店,上海市长宁区遵义南路5号,31.209477,121.411921
64,格林豪泰快捷酒店(上海火车站澳门路快捷酒店),上海市普陀区澳门路701号,31.249517,121.443332
65,莫泰酒店(昌平路地铁站店),上海市静安区昌平路459号,31.242085,121.452887
66,汉庭酒店(西康路店),上海市西康路899号,31.24513,121.44936
67,汉庭酒店(上海江宁路新店),上海市静安区昌平路317号,31.243122,121.455631
68,如家派柏云酒店(上海徐汇区复兴中路店),上海市徐汇区复兴中路1251号(距五官科医院东北700米),31.218765,121.463982
69,格林豪泰快捷酒店(虹桥路地铁站店),上海市长宁区中山西路1265弄18号,31.198942,121.426521
70,Zsmart智尚酒店(梅龙镇广场店),上海市静安区陕西北路698号,31.240918,121.456504
71,一间森林青年旅舍(静安寺地铁站店),上海市静安区北京西路1213号,31.235395,121.458532
72,上海学长家青年求职公寓,上海市武夷路418弄1号楼武定大厦,31.219063,121.428791
73,易佰连锁旅店(兰溪路店),上海市普陀区兰溪路148号,31.245947,121.411333
74,艾尚快捷旅店(娄山关路店),上海市长宁区娄山关路858号3楼(地铁2号线娄山关路站1号口出步行5分钟),31.220471,121.411348
75,华亭宾馆,上海市徐汇区漕溪北路1200号,31.188423,121.442225
76,莫泰酒店(大渡河路地铁站店),上海市普陀区大渡河路1122号,31.240579,121.402158
77,魔方公寓(交通大学店),上海市徐汇区番禺路888号-3层,31.202107,121.434245
78,如家·neo(中山西路店),上海市徐汇区中山西路1520号,31.195742,121.427144
79,汉庭酒店(澳门路店),上海市普陀区澳门路503号,31.252048,121.446268
80,云雅精选酒店,上海市普陀区中山北路3159号,31.243148,121.420255
81,易佰酒店(岚皋路地铁站店),上海市普陀区石泉路220号,31.256008,121.429708
82,沪汉宾馆,上海市长宁区天山路1898号,31.21471,121.420996
83,和颐至尊酒店(南京西路地铁站店),上海市静安区新闸路1136号石油天然气大厦3层,31.239344,121.460632
84,迪凯精选酒店,上海市长宁区安顺路144号,31.207877,121.424932
85,海友酒店(上海普陀中心医院店),上海市普陀区梅岭北路480号,31.248398,121.410903
86,7天酒店(江宁路地铁站玉佛寺店),上海市静安区安远路139号,31.247921,121.45305
87,好望角大饭店,上海市徐汇区肇嘉浜路500号,31.2076,121.460562
88,如家(宜山路店),上海市徐汇区宜山路250弄12号,31.19549,121.435509
89,上海F1精品酒店(西康路店),上海市静安区康定路468号,31.240077,121.454343
90,上海澳门轻奢酒店(陕西北路店),上海市普陀区陕西北路1622号3层,31.251544,121.446321
91,艾森主题酒店(上海胶州路店),上海市普陀区胶州路947号,31.243902,121.443011
92,速登精品酒店(天山店),娄山关路888号虹桥假日广场,31.22114,121.41156
93,m家社区酒店(金沙江路店),上海市普陀区金沙江路730号,31.23802,121.405778
94,锦江青松城大酒店,上海市徐汇区东安路8号,31.204778,121.455706
95,鼎珍商旅酒店,上海市枣阳路279号,31.239717,121.408581
96,莱卡优品酒店(长寿路店),上海市普陀区叶家宅路71-3号3楼,31.243958,121.437444
97,上海陕西商务酒店,上海市静安区延安中路658号,31.230513,121.468129
98,阔悦酒店,上海市普陀区澳门路351号燕兴大厦3楼,31.252912,121.448563
99,上海曼福楼精选酒店(上海南京西路店),上海市静安区陕西北路739号,31.240704,121.456313
100,尼航主题酒店(长寿路地铁站亚新广场店),上海市普陀区长寿路393号,31.246171,121.443801
101,逸风商务酒店,上海市普陀区大渡河路646号(近金沙江路),31.234709,121.40234
102,乐宜时尚宾馆(徐家汇交大店),乐山路115号4楼(近交通大学、胸科医院),31.201061,121.437398
103,上海鼎珍主题酒店(东新店),上海市普陀区东新支路110弄1号(靠近东新路派出所),31.249639,121.432006
104,浦江之星(水城路店),上海市长宁区水城路372号二楼,31.212394,121.397617
105,酷客至尚酒店(南京西路店),上海市静安区大沽路529号,31.231256,121.470582
106,海友酒店(宋园路店),上海市徐汇区宋园路128弄18号,31.196654,121.421281
107,上海徐汇瑞峰酒店,上海市徐汇区肇嘉浜路7号(瑞金南路附近),31.20965,121.472395
108,如家商旅酒店(古北店),上海市闵行区伊犁南路26号,31.195861,121.410696
109,优堡宾馆(虹桥路地铁站店),上海市长宁区凯旋路1169号(安顺路路口轻轨西面往北50米),31.208337,121.425088
110,海友酒店(上海嘉善路地铁站二店),上海市徐汇区肇嘉浜路249号,31.20897,121.468965
111,上海宝隆居家酒店(徐汇店),上海市徐汇区肇嘉浜路沿线东安路177号,31.201297,121.458824
112,升源宾馆(梅岭北路店),上海市普陀区梅岭北路408-3号,31.248581,121.412065
113,沁怡宾馆(怒江路店),上海市普陀区怒江路204-1号2层,31.235691,121.405918
114,泽选精品酒店,上海普陀区中山北路2170号,31.252995,121.436062
115,久方假日旅馆,上海市普陀区长寿路522号(近胶州路),31.246412,121.442685
